IRIDIUM 65 [+]          
1 25288U 98021D   16030.57374017  .00000128  00000-0  38645-4 0  9990
2 25288  86.3938  74.4099 0002194  99.4739 260.6705 14.34218304932835
IRIDIUM 66 [+]          
1 25289U 98021E   16030.61186402  .00000144  00000-0  44402-4 0  9991
2 25289  86.3938  74.3016 0002120  96.7561  67.4057 14.34218226932832
IRIDIUM 67 [+]          
1 25290U 98021F   16030.58642599  .00000131  00000-0  39844-4 0  9993
2 25290  86.3939  74.4411 0002190  95.7453 264.3992 14.34217991932846
IRIDIUM 68 [+]          
1 25291U 98021G   16030.59279006  .00000136  00000-0  41536-4 0  9990
2 25291  86.3939  74.5477 0002100  95.4323 264.7112 14.34218441932810
IRIDIUM 69 [-]          
1 25319U 98026A   16030.26558693  .00000187  00000-0  54606-4 0  9990
2 25319  86.3990  97.7357 0003982 112.2041 310.8091 14.38544604930595
IRIDIUM 71 [-]          
1 25320U 98026B   16030.61906273  .00000175  00000-0  50221-4 0  9998
2 25320  86.3969  93.7197 0002615 143.1340 327.4754 14.38971641931055
IRIDIUM 70 [+]          
1 25342U 98032A   16030.57780751  .00000078  00000-0  20649-4 0  9998
2 25342  86.3944  74.7721 0002093  97.3491  54.7372 14.34217583926910
IRIDIUM 72 [+]          
1 25343U 98032B   16030.55722186  .00000141  00000-0  43338-4 0  9996
2 25343  86.3937  74.4251 0002186  95.8080  15.4992 14.34218406926915
IRIDIUM 73 [-]          
1 25344U 98032C   16030.58900892  .00000189  00000-0  44480-4 0  9993
2 25344  86.4395  55.7598 0001759  77.1117  36.3969 14.48883177934632
IRIDIUM 74 [S]          
1 25345U 98032D   16030.57275525  .00000182  00000-0  48391-4 0  9999
2 25345  86.4450  74.7488 0002442  94.7458  67.3903 14.42949809930128
IRIDIUM 75 [+]          
1 25346U 98032E   16030.57152959  .00000129  00000-0  39104-4 0  9998
2 25346  86.3942  74.6537 0002169  95.0677  57.3324 14.34216942927488
IRIDIUM 3 [+]           
1 25431U 98048A   16030.61872321  .00000236  00000-0  77172-4 0  9993
2 25431  86.3973 106.2453 0002131 101.5427  14.6884 14.34219350913434
IRIDIUM 76 [+]          
1 25432U 98048B   16030.27821727  .00000232  00000-0  75693-4 0  9992
2 25432  86.3971 106.1582 0002057  97.2907 323.7796 14.34219184913370
IRIDIUM 82 [+]          
1 25467U 98051A   16030.51476177 -.00000101  00000-0 -43110-4 0  9992
2 25467  86.3948 232.6231 0002187  90.5566 269.5880 14.34218715914426
IRIDIUM 81 [+]          
1 25468U 98051B   16030.50841875  .00000056  00000-0  12959-4 0  9997
2 25468  86.3939 232.2715 0002128  87.5808 272.5631 14.34217567910642
IRIDIUM 80 [+]          
1 25469U 98051C   16030.56924354 -.00000004  00000-0 -83745-5 0  9995
2 25469  86.3946 232.5098 0001966  81.1896 330.9192 14.34219338910654
IRIDIUM 77 [+]          
1 25471U 98051E   16030.57559899 -.00000021  00000-0 -14387-4 0  9991
2 25471  86.3937 232.1270 0001817  86.2795 325.9976 14.34217761915853
IRIDIUM 2 [-]           
1 25527U 98066A   16030.52024235  .00003272  00000-0  17582-3 0  9993
2 25527  85.5335 329.1047 0011606 128.7128 283.1060 15.14456807941590
IRIDIUM 86 [+]          
1 25528U 98066B   16030.52398733 -.00000023  00000-0 -15332-4 0  9996
2 25528  86.3959 200.3416 0001818  95.1069 265.0335 14.34216458907174
IRIDIUM 84 [+]          
1 25530U 98066D   16030.55570282  .00000016  00000-0 -13380-5 0  9996
2 25530  86.3961 200.4845 0001949  87.7136 272.4283 14.34216139904812
IRIDIUM 83 [+]          
1 25531U 98066E   16030.51765429 -.00000002  00000-0 -78274-5 0  9991
2 25531  86.3964 200.6052 0001933  87.9721 272.1696 14.34217442902162
IRIDIUM 20 [+]          
1 25577U 98074A   16030.57720512  .00000243  00000-0  79586-4 0  9991
2 25577  86.3969 105.9617 0002195  98.8976 261.2469 14.34219252896255
IRIDIUM 11 [+]          
1 25578U 98074B   16030.61247086  .00000228  00000-0  74431-4 0  9994
2 25578  86.3968 106.1535 0002295  99.0557  17.6386 14.34219038905227
IRIDIUM 14 [S]          
1 25777U 99032A   16030.59058310  .00000012  00000-0 -27330-5 0  9996
2 25777  86.3940  74.4839 0002119  98.8268  53.7014 14.34217873882490
IRIDIUM 21 [+]          
1 25778U 99032B   16030.52933906  .00000020  00000-0  20961-6 0  9995
2 25778  86.3939  74.5342 0002129  91.8711 268.2728 14.34218276875929
IRIDIUM 91 [+]          
1 27372U 02005A   16030.59431152  .00000271  00000-0  89753-4 0  9994
2 27372  86.4016 138.3190 0002373  97.2320  39.0949 14.34218451739445
IRIDIUM 90 [S]          
1 27373U 02005B   16030.52687211  .00000015  00000-0 -16950-5 0  9994
2 27373  86.4474 200.5655 0001626  91.5859 268.5528 14.42944843738728
IRIDIUM 94 [S]          
1 27374U 02005C   16030.27159964  .00000236  00000-0  77317-4 0  9993
2 27374  86.3969 106.4161 0001120 108.2416 311.3926 14.34219484743729
IRIDIUM 95 [+]          
1 27375U 02005D   16030.39667095  .00000068  00000-0  17397-4 0  9991
2 27375  86.4017 138.1851 0001958  98.1314 262.0104 14.34216347738703
IRIDIUM 96 [S]          
1 27376U 02005E   16030.51424143  .00000193  00000-0  61983-4 0  9990
2 27376  86.4028 169.5830 0001958  49.5938 310.5428 14.34220383743926
IRIDIUM 97 [+]          
1 27450U 02031A   16030.48253295  .00000165  00000-0  51932-4 0  9998
2 27450  86.3996 169.4581 0002236  93.8481 266.2970 14.34215751718035
IRIDIUM 98 [S]          
1 27451U 02031B   16030.55102402 -.00000019  00000-0 -13886-4 0  9996
2 27451  86.3938 232.7084 0002076  83.0165 333.2932 14.34220192719114
